[{"OBJECT_NAME":"STARLINK-35169","OBJECT_ID":"2025-195H","EPOCH":"2026-03-09T21:38:10.149504","MEAN_MOTION":15.30195215,"ECCENTRICITY":0.00011095,"INCLINATION":53.1599,"RA_OF_ASC_NODE":257.3744,"ARG_OF_PERICENTER":89.4678,"MEAN_ANOMALY":270.645,"EPHEMERIS_TYPE":0,"CLASSIFICATION_TYPE":"U","NORAD_CAT_ID":65465,"ELEMENT_SET_NO":999,"REV_AT_EPOCH":3002,"BSTAR":0.0011498812,"MEAN_MOTION_DOT":0.00033847,"MEAN_MOTION_DDOT":0},{"OBJECT_NAME":"KSLV-II R\/B","OBJECT_ID":"2023-072H","EPOCH":"2026-03-09T20:13:26.441760","MEAN_MOTION":15.33109439,"ECCENTRICITY":0.00241884,"INCLINATION":97.4991,"RA_OF_ASC_NODE":274.152,"ARG_OF_PERICENTER":318.2938,"MEAN_ANOMALY":41.646,"EPHEMERIS_TYPE":0,"CLASSIFICATION_TYPE":"U","NORAD_CAT_ID":56750,"ELEMENT_SET_NO":999,"REV_AT_EPOCH":15516,"BSTAR":0.00028309532,"MEAN_MOTION_DOT":9.057e-5,"MEAN_MOTION_DDOT":0}]
